NORAD_CAT_ID,OBJECT_NAME,OBJECT_TYPE,EPOCH,MEAN_MOTION,ECCENTRICITY,INCLINATION,RA_OF_ASC_NODE,ARG_OF_PERICENTER,MEAN_ANOMALY,BSTAR,MEAN_MOTION_DOT,MEAN_MOTION_DDOT,TLE_LINE0,TLE_LINE1,TLE_LINE2,SEMIMAJOR_AXIS,PERIOD,APOGEE,PERIGEE,DECAYED
50203.0,STARLINK-3257,PAYLOAD,2022-10-29 09:15:07,15.08851314,0.0002844,53.2186,348.7182,27.0772,333.0368,-2.2846e-05,-6.52e-06,0.0,0 STARLINK-3257,1 50203U 21125AZ  22302.38550385 -.00000652  00000-0 -22846-4 0  9998,2 50203  53.2186 348.7182 0002844  27.0772 333.0368 15.08851314 51517,6917.846,95.437,541.678,537.743,0.0
50203.0,STARLINK-3257,PAYLOAD,2022-10-29 20:22:48,15.0885796,0.0002844,53.2184,346.6349,26.2632,333.8504,6.7257e-05,7.83e-06,0.0,0 STARLINK-3257,1 50203U 21125AZ  22302.84917303  .00000783  00000-0  67257-4 0  9994,2 50203  53.2184 346.6349 0002844  26.2632 333.8504 15.08857960 51583,6917.825,95.436,541.658,537.7230000000002,0.0
50203.0,STARLINK-3257,PAYLOAD,2022-10-30 07:30:31,15.08843437,0.0002717,53.2182,344.5552,29.2051,330.9092,-0.00012007,-2.199e-05,0.0,0 STARLINK-3257,1 50203U 21125AZ  22303.31286469 -.00002199  00000-0 -12007-3 0  9996,2 50203  53.2182 344.5552 0002717  29.2051 330.9092 15.08843437 51653,6917.87,95.437,541.614,537.855,0.0
50203.0,STARLINK-3257,PAYLOAD,2022-10-30 20:13:35,15.08850685,0.0002748999999999,53.2181,342.1751,29.0097,331.1048,5.264e-05,5.5e-06,0.0,0 STARLINK-3257,1 50203U 21125AZ  22303.84277410  .00000550  00000-0  52640-4 0  9995,2 50203  53.2181 342.1751 0002749  29.0097 331.1048 15.08850685 51736,6917.848000000001,95.437,541.614,537.811,0.0
50203.0,STARLINK-3257,PAYLOAD,2022-10-31 08:56:40,15.08845539,0.000268,53.2182,339.7953,28.3316,331.7822,5.5096e-05,5.89e-06,0.0,0 STARLINK-3257,1 50203U 21125AZ  22304.37269569  .00000589  00000-0  55096-4 0  9990,2 50203  53.2182 339.7953 0002680  28.3316 331.7822 15.08845539 51810,6917.863,95.437,541.582,537.874,0.0
50203.0,STARLINK-3257,PAYLOAD,2022-10-31 20:04:23,15.08841594,0.0002933,53.2174,337.7156,28.4446,331.6705,-3.3918e-05,-8.28e-06,0.0,0 STARLINK-3257,1 50203U 21125AZ  22304.83638143 -.00000828  00000-0 -33918-4 0  9996,2 50203  53.2174 337.7156 0002933  28.4446 331.6705 15.08841594 48744,6917.876,95.437,541.77,537.712,0.0
50203.0,STARLINK-3257,PAYLOAD,2022-11-01 08:47:28,15.08833702,0.0002713,53.2175,335.3366,29.7639,330.3507,0.00013121,1.8e-05,0.0,0 STARLINK-3257,1 50203U 21125AZ  22305.36630370  .00001800  00000-0  13121-3 0  9991,2 50203  53.2175 335.3366 0002713  29.7639 330.3507 15.08833702 51962,6917.9,95.438,541.641,537.888,0.0
50203.0,STARLINK-3257,PAYLOAD,2022-11-02 02:16:43,15.08838667,0.0002611,53.2172,332.0647,31.4378,328.677,6.6523e-05,7.699999999999999e-06,0.0,0 STARLINK-3257,1 50203U 21125AZ  22306.09494402  .00000770  00000-0  66523-4 0  9996,2 50203  53.2172 332.0647 0002611  31.4378 328.6770 15.08838667 48932,6917.884,95.438,541.556,537.943,0.0
50203.0,STARLINK-3257,PAYLOAD,2022-11-02 08:38:15,15.08838196,0.0002733,53.2176,330.8737,28.2748,331.8392,6.1652e-05,6.93e-06,0.0,0 STARLINK-3257,1 50203U 21125AZ  22306.35990590  .00000693  00000-0  61652-4 0  9996,2 50203  53.2176 330.8737 0002733  28.2748 331.8392 15.08838196 52110,6917.886,95.438,541.6419999999998,537.86,0.0
50203.0,STARLINK-3257,PAYLOAD,2022-11-02 22:56:45,15.08823751,0.0002788999999999,53.2176,328.2004,26.6291,333.4844,9.5159e-06,-1.37e-06,0.0,0 STARLINK-3257,1 50203U 21125AZ  22306.95608048 -.00000137  00000-0  95159-5 0  9990,2 50203  53.2176 328.2004 0002789  26.6291 333.4844 15.08823751 49065,6917.93,95.439,541.724,537.866,0.0
50203.0,STARLINK-3257,PAYLOAD,2022-11-03 11:39:49,15.088412599999998,0.0002918,53.2171,325.8207,26.7059,333.4083,0.00014686,2.05e-05,0.0,0 STARLINK-3257,1 50203U 21125AZ  22307.48599019  .00002050  00000-0  14686-3 0  9995,2 50203  53.2171 325.8207 0002918  26.7059 333.4083 15.08841260 49144,6917.877,95.437,541.76,537.7230000000002,0.0
50203.0,STARLINK-3257,PAYLOAD,2022-11-04 08:19:49,15.08852828,0.000248,53.2164,321.9558,30.7432,329.3705,0.00026659,3.959e-05,0.0,0 STARLINK-3257,1 50203U 21125AZ  22308.34710255  .00003959  00000-0  26659-3 0  9990,2 50203  53.2164 321.9558 0002480  30.7432 329.3705 15.08852828 49277,6917.840999999999,95.437,541.422,537.991,0.0
50203.0,STARLINK-3257,PAYLOAD,2022-11-04 17:52:08,15.08841013,0.0002969,53.2162,320.1704,29.0207,331.0949,2.165e-05,5.6e-07,0.0,0 STARLINK-3257,1 50203U 21125AZ  22308.74454689  .00000056  00000-0  21650-4 0  9992,2 50203  53.2162 320.1704 0002969  29.0207 331.0949 15.08841013 49333,6917.877,95.437,541.7959999999998,537.688,0.0
50203.0,STARLINK-3257,PAYLOAD,2022-11-05 09:46:00,15.08831176,0.0002498,53.2165,317.1992,35.5447,324.5712,-5.6109e-05,-1.181e-05,0.0,0 STARLINK-3257,1 50203U 21125AZ  22309.40695305 -.00001181  00000-0 -56109-4 0  9997,2 50203  53.2165 317.1992 0002498  35.5447 324.5712 15.08831176 52570,6917.906999999997,95.438,541.5,538.044,0.0
50203.0,STARLINK-3257,PAYLOAD,2022-11-05 17:42:57,15.08818996,0.0002771,53.216,315.7124,28.0958,332.0183,-0.00036182,-6.039e-05,0.0,0 STARLINK-3257,1 50203U 21125AZ  22309.73816101 -.00006039  00000-0 -36182-3 0  9997,2 50203  53.2160 315.7124 0002771  28.0958 332.0183 15.08818996 49481,6917.945,95.439,541.727,537.893,0.0
50203.0,STARLINK-3257,PAYLOAD,2022-11-06 08:01:25,15.08832097,0.0002763,53.2174,313.0338,29.8879,330.227,-9.4866e-05,-1.798e-05,0.0,0 STARLINK-3257,1 50203U 21125AZ  22310.33432635 -.00001798  00000-0 -94866-4 0  9992,2 50203  53.2174 313.0338 0002763  29.8879 330.2270 15.08832097 49571,6917.905,95.438,541.681,537.8580000000002,0.0
50203.0,STARLINK-3257,PAYLOAD,2022-11-06 20:44:30,15.08838663,0.000296,53.2176,310.6549,29.3064,330.8094,8.9204e-05,1.131e-05,0.0,0 STARLINK-3257,1 50203U 21125AZ  22310.86424158  .00001131  00000-0  89204-4 0  9990,2 50203  53.2176 310.6549 0002960  29.3064 330.8094 15.08838663 49654,6917.884,95.438,541.797,537.702,0.0
50203.0,STARLINK-3257,PAYLOAD,2022-11-07 20:35:18,15.08844445,0.0003095,53.2167,306.1948,30.0835,330.0334,0.00049376,7.58e-05,0.0,0 STARLINK-3257,1 50203U 21125AZ  22311.85784876  .00007580  00000-0  49376-3 0  9995,2 50203  53.2167 306.1948 0003095  30.0835 330.0334 15.08844445 52942,6917.8669999999975,95.437,541.873,537.591,0.0
50203.0,STARLINK-3257,PAYLOAD,2022-11-08 06:07:36,15.08855989,0.0002951,53.216,304.4098,30.8801,329.2364,0.0004104,6.252e-05,0.0,0 STARLINK-3257,1 50203U 21125AZ  22312.25528230  .00006252  00000-0  41040-3 0  9995,2 50203  53.2160 304.4098 0002951  30.8801 329.2364 15.08855989 49868,6917.831999999999,95.437,541.738,537.655,0.0
50203.0,STARLINK-3257,PAYLOAD,2022-11-08 09:18:22,15.08859249,0.0003016,53.2159,303.8149,31.5656,328.5517,0.0004203,6.411e-05,0.0,0 STARLINK-3257,1 50203U 21125AZ  22312.38776024  .00006411  00000-0  42030-3 0  9992,2 50203  53.2159 303.8149 0003016  31.5656 328.5517 15.08859249 53023,6917.821999999999,95.436,541.773,537.6,0.0
50203.0,STARLINK-3257,PAYLOAD,2022-11-08 20:26:03,15.08871692,0.0003016,53.2162,301.7336,31.2541,328.86300000000006,0.0005472,8.439e-05,0.0,0 STARLINK-3257,1 50203U 21125AZ  22312.85142969  .00008439  00000-0  54720-3 0  9990,2 50203  53.2162 301.7336 0003016  31.2541 328.8630 15.08871692 53094,6917.784000000002,95.436,541.735,537.562,0.0
50203.0,STARLINK-3257,PAYLOAD,2022-11-09 02:47:35,15.08876267,0.0003013999999999,53.2164,300.5438,30.7897,329.3271,0.00053948,8.317e-05,0.0,0 STARLINK-3257,1 50203U 21125AZ  22313.11638352  .00008317  00000-0  53948-3 0  9992,2 50203  53.2164 300.5438 0003014  30.7897 329.3271 15.08876267 49996,6917.77,95.435,541.72,537.55,0.0
50203.0,STARLINK-3257,PAYLOAD,2022-11-09 09:09:07,15.08868026,0.0002976,53.2168,299.3551,31.2003,328.9166,0.00024183,3.565e-05,0.0,0 STARLINK-3257,1 50203U 21125AZ  22313.38133952  .00003565  00000-0  24183-3 0  9996,2 50203  53.2168 299.3551 0002976  31.2003 328.9166 15.08868026 53179,6917.795,95.436,541.7180000000002,537.601,0.0
50203.0,STARLINK-3257,PAYLOAD,2022-11-09 20:16:51,15.08824229,0.0002931,53.2166,297.2744,26.6046,333.5097,-0.00038969,-6.483e-05,0.0,0 STARLINK-3257,1 50203U 21125AZ  22313.84504177 -.00006483  00000-0 -38969-3 0  9999,2 50203  53.2166 297.2744 0002931  26.6046 333.5097 15.08824229 50106,6917.929,95.439,541.821,537.766,0.0
50203.0,STARLINK-3257,PAYLOAD,2022-11-10 05:49:10,15.088227300000002,0.0002858,53.2169,295.4899,26.3928,333.721,-0.00034754,-5.813e-05,0.0,0 STARLINK-3257,1 50203U 21125AZ  22314.24248495 -.00005813  00000-0 -34754-3 0  9996,2 50203  53.2169 295.4899 0002858  26.3928 333.7210 15.08822730 53303,6917.933000000001,95.439,541.775,537.821,0.0
50203.0,STARLINK-3257,PAYLOAD,2022-11-10 15:21:29,15.0882881,0.0002831,53.2169,293.7056,26.5557,333.55800000000005,-0.00022772,-3.91e-05,0.0,0 STARLINK-3257,1 50203U 21125AZ  22314.63992492 -.00003910  00000-0 -22772-3 0  9995,2 50203  53.2169 293.7056 0002831  26.5557 333.5580 15.08828810 50221,6917.915,95.438,541.738,537.821,0.0
50203.0,STARLINK-3257,PAYLOAD,2022-11-11 04:04:34,15.08837057,0.0002804,53.217,291.3264,27.6899,332.4242,2.9166e-05,1.76e-06,0.0,0 STARLINK-3257,1 50203U 21125AZ  22315.16984476  .00000176  00000-0  29166-4 0  9991,2 50203  53.2170 291.3264 0002804  27.6899 332.4242 15.08837057 50304,6917.889,95.438,541.694,537.815,0.0
50203.0,STARLINK-3257,PAYLOAD,2022-11-11 08:50:44,15.08836647,0.000281,53.2169,290.4342,26.3532,333.7603,0.00053231,8.193e-05,0.0,0 STARLINK-3257,1 50203U 21125AZ  22315.36857068  .00008193  00000-0  53231-3 0  9995,2 50203  53.2169 290.4342 0002810  26.3532 333.7603 15.08836647 53476,6917.891,95.438,541.7,537.812,0.0
50203.0,STARLINK-3257,PAYLOAD,2022-11-12 05:30:44,15.08860872,0.000277,53.217,286.5687,28.2309,331.8833,0.00072209,0.00011229,0.0,0 STARLINK-3257,1 50203U 21125AZ  22316.22968534  .00011229  00000-0  72209-3 0  9992,2 50203  53.2170 286.5687 0002770  28.2309 331.8833 15.08860872 50461,6917.816999999999,95.436,541.5980000000002,537.765,0.0
